\relax 
\@writefile{toc}{\contentsline {section}{\numberline {3.13}\_\discretionary {-}{}{}SgpTLE Struct Reference}{31}{section.3.13}}
\newlabel{struct___sgp_t_l_e}{{3.13}{31}{\_\-SgpTLE Struct Reference\relax }{section.3.13}{}}
\@writefile{toc}{\contentsline {subsection}{\numberline {3.13.1}Detailed Description}{31}{subsection.3.13.1}}
\@writefile{toc}{\contentsline {subsection}{\numberline {3.13.2}Field Documentation}{32}{subsection.3.13.2}}
\@writefile{toc}{\contentsline {subsubsection}{\numberline {3.13.2.1}ArgOfPerigee}{32}{subsubsection.3.13.2.1}}
\newlabel{struct___sgp_t_l_e_faafa77786dcba9c30db49ee397f3bdc}{{3.13.2.1}{32}{ArgOfPerigee\relax }{subsubsection.3.13.2.1}{}}
\@writefile{toc}{\contentsline {subsubsection}{\numberline {3.13.2.2}BstarDrag}{32}{subsubsection.3.13.2.2}}
\newlabel{struct___sgp_t_l_e_542efb643c91709b678e9a08a27d9e40}{{3.13.2.2}{32}{BstarDrag\relax }{subsubsection.3.13.2.2}{}}
\@writefile{toc}{\contentsline {subsubsection}{\numberline {3.13.2.3}Date}{32}{subsubsection.3.13.2.3}}
\newlabel{struct___sgp_t_l_e_8c1b7b17183e48a6fafaf6302e1b1da9}{{3.13.2.3}{32}{Date\relax }{subsubsection.3.13.2.3}{}}
\@writefile{toc}{\contentsline {subsubsection}{\numberline {3.13.2.4}Day}{32}{subsubsection.3.13.2.4}}
\newlabel{struct___sgp_t_l_e_8f67164de537e3ec2b47e3204ddd3400}{{3.13.2.4}{32}{Day\relax }{subsubsection.3.13.2.4}{}}
\@writefile{toc}{\contentsline {subsubsection}{\numberline {3.13.2.5}dMMdT1}{32}{subsubsection.3.13.2.5}}
\newlabel{struct___sgp_t_l_e_0ffa4eb7b3b12cc2c8c51d6c300ca61a}{{3.13.2.5}{32}{dMMdT1\relax }{subsubsection.3.13.2.5}{}}
\@writefile{toc}{\contentsline {subsubsection}{\numberline {3.13.2.6}dMMdT2}{32}{subsubsection.3.13.2.6}}
\newlabel{struct___sgp_t_l_e_eaac5f4f09ca804c3373fe4f78e8a96b}{{3.13.2.6}{32}{dMMdT2\relax }{subsubsection.3.13.2.6}{}}
\@writefile{toc}{\contentsline {subsubsection}{\numberline {3.13.2.7}Dow}{32}{subsubsection.3.13.2.7}}
\newlabel{struct___sgp_t_l_e_2837532bf73f7b76480715042d548d63}{{3.13.2.7}{32}{Dow\relax }{subsubsection.3.13.2.7}{}}
\@writefile{toc}{\contentsline {subsubsection}{\numberline {3.13.2.8}Doy}{32}{subsubsection.3.13.2.8}}
\newlabel{struct___sgp_t_l_e_72a1d4d4121176f8cf34faa09b5b4982}{{3.13.2.8}{32}{Doy\relax }{subsubsection.3.13.2.8}{}}
\@writefile{toc}{\contentsline {subsubsection}{\numberline {3.13.2.9}Eccentricity}{32}{subsubsection.3.13.2.9}}
\newlabel{struct___sgp_t_l_e_9e8627236231ee5feff425a382c3cc0d}{{3.13.2.9}{32}{Eccentricity\relax }{subsubsection.3.13.2.9}{}}
\@writefile{toc}{\contentsline {subsubsection}{\numberline {3.13.2.10}ElementSetEpoch}{32}{subsubsection.3.13.2.10}}
\newlabel{struct___sgp_t_l_e_9292d9013dff34d350a2dd9bf102eb6d}{{3.13.2.10}{32}{ElementSetEpoch\relax }{subsubsection.3.13.2.10}{}}
\@writefile{toc}{\contentsline {subsubsection}{\numberline {3.13.2.11}ElementSetNum}{32}{subsubsection.3.13.2.11}}
\newlabel{struct___sgp_t_l_e_792ff599d71797b42592d89cc27fa00c}{{3.13.2.11}{32}{ElementSetNum\relax }{subsubsection.3.13.2.11}{}}
\@writefile{toc}{\contentsline {subsubsection}{\numberline {3.13.2.12}ElementSetType}{33}{subsubsection.3.13.2.12}}
\newlabel{struct___sgp_t_l_e_c036ab9b5a5d2885f7739225bdebfe4e}{{3.13.2.12}{33}{ElementSetType\relax }{subsubsection.3.13.2.12}{}}
\@writefile{toc}{\contentsline {subsubsection}{\numberline {3.13.2.13}ElsetClass}{33}{subsubsection.3.13.2.13}}
\newlabel{struct___sgp_t_l_e_27655aa07b94161a7cad6c42562c2fd6}{{3.13.2.13}{33}{ElsetClass\relax }{subsubsection.3.13.2.13}{}}
\@writefile{toc}{\contentsline {subsubsection}{\numberline {3.13.2.14}EpochStr}{33}{subsubsection.3.13.2.14}}
\newlabel{struct___sgp_t_l_e_b6d6f17aac13c3765520b602f44b21be}{{3.13.2.14}{33}{EpochStr\relax }{subsubsection.3.13.2.14}{}}
\@writefile{toc}{\contentsline {subsubsection}{\numberline {3.13.2.15}IdNumber}{33}{subsubsection.3.13.2.15}}
\newlabel{struct___sgp_t_l_e_8134db9bcf3428082c18dba769258dfd}{{3.13.2.15}{33}{IdNumber\relax }{subsubsection.3.13.2.15}{}}
\@writefile{toc}{\contentsline {subsubsection}{\numberline {3.13.2.16}Inclination}{33}{subsubsection.3.13.2.16}}
\newlabel{struct___sgp_t_l_e_dc4143d3dcc5a8a32498a8d172e0d394}{{3.13.2.16}{33}{Inclination\relax }{subsubsection.3.13.2.16}{}}
\@writefile{toc}{\contentsline {subsubsection}{\numberline {3.13.2.17}IntDesig}{33}{subsubsection.3.13.2.17}}
\newlabel{struct___sgp_t_l_e_3a15ad7195fd3d6ea5481548706bf091}{{3.13.2.17}{33}{IntDesig\relax }{subsubsection.3.13.2.17}{}}
\@writefile{toc}{\contentsline {subsubsection}{\numberline {3.13.2.18}IntDesig2}{33}{subsubsection.3.13.2.18}}
\newlabel{struct___sgp_t_l_e_37b8c7421d0ac1fad2e300ce2f39d03c}{{3.13.2.18}{33}{IntDesig2\relax }{subsubsection.3.13.2.18}{}}
\@writefile{toc}{\contentsline {subsubsection}{\numberline {3.13.2.19}JD}{33}{subsubsection.3.13.2.19}}
\newlabel{struct___sgp_t_l_e_fca64005cd84fa9e811dac5219a618ad}{{3.13.2.19}{33}{JD\relax }{subsubsection.3.13.2.19}{}}
\@writefile{toc}{\contentsline {subsubsection}{\numberline {3.13.2.20}Line0}{33}{subsubsection.3.13.2.20}}
\newlabel{struct___sgp_t_l_e_e82736c1760be22e457d9d40dbeb39b6}{{3.13.2.20}{33}{Line0\relax }{subsubsection.3.13.2.20}{}}
\@writefile{toc}{\contentsline {subsubsection}{\numberline {3.13.2.21}Line1}{33}{subsubsection.3.13.2.21}}
\newlabel{struct___sgp_t_l_e_793987b1643141f9bec4786e272d1244}{{3.13.2.21}{33}{Line1\relax }{subsubsection.3.13.2.21}{}}
\@writefile{toc}{\contentsline {subsubsection}{\numberline {3.13.2.22}Line1CheckSum}{33}{subsubsection.3.13.2.22}}
\newlabel{struct___sgp_t_l_e_43803c19029852338bbb6ec4b9c13381}{{3.13.2.22}{33}{Line1CheckSum\relax }{subsubsection.3.13.2.22}{}}
\@writefile{toc}{\contentsline {subsubsection}{\numberline {3.13.2.23}Line2}{34}{subsubsection.3.13.2.23}}
\newlabel{struct___sgp_t_l_e_05f315119f6d3da73fc77ce525f8d373}{{3.13.2.23}{34}{Line2\relax }{subsubsection.3.13.2.23}{}}
\@writefile{toc}{\contentsline {subsubsection}{\numberline {3.13.2.24}Line2CheckSum}{34}{subsubsection.3.13.2.24}}
\newlabel{struct___sgp_t_l_e_3630c8fcee279a2fa0698fa9b7748cf3}{{3.13.2.24}{34}{Line2CheckSum\relax }{subsubsection.3.13.2.24}{}}
\@writefile{toc}{\contentsline {subsubsection}{\numberline {3.13.2.25}MeanAnomaly}{34}{subsubsection.3.13.2.25}}
\newlabel{struct___sgp_t_l_e_d3d6acdadbbc8715b238f8f6fbf4d4a8}{{3.13.2.25}{34}{MeanAnomaly\relax }{subsubsection.3.13.2.25}{}}
\@writefile{toc}{\contentsline {subsubsection}{\numberline {3.13.2.26}MeanMotion}{34}{subsubsection.3.13.2.26}}
\newlabel{struct___sgp_t_l_e_a8230c8489edeb8a5e009088180c9d12}{{3.13.2.26}{34}{MeanMotion\relax }{subsubsection.3.13.2.26}{}}
\@writefile{toc}{\contentsline {subsubsection}{\numberline {3.13.2.27}Month}{34}{subsubsection.3.13.2.27}}
\newlabel{struct___sgp_t_l_e_530b376ec91a278ac98531d3ea17f148}{{3.13.2.27}{34}{Month\relax }{subsubsection.3.13.2.27}{}}
\@writefile{toc}{\contentsline {subsubsection}{\numberline {3.13.2.28}Name}{34}{subsubsection.3.13.2.28}}
\newlabel{struct___sgp_t_l_e_d1f4d8ec802a30593b1aadbaf41aa205}{{3.13.2.28}{34}{Name\relax }{subsubsection.3.13.2.28}{}}
\@writefile{toc}{\contentsline {subsubsection}{\numberline {3.13.2.29}ObjectType}{34}{subsubsection.3.13.2.29}}
\newlabel{struct___sgp_t_l_e_70ff42494dd6b9ce04f0465a4cecc1bc}{{3.13.2.29}{34}{ObjectType\relax }{subsubsection.3.13.2.29}{}}
\@writefile{toc}{\contentsline {subsubsection}{\numberline {3.13.2.30}Period}{34}{subsubsection.3.13.2.30}}
\newlabel{struct___sgp_t_l_e_3a64c0f7b4ac76464f9118ce94ad8f3e}{{3.13.2.30}{34}{Period\relax }{subsubsection.3.13.2.30}{}}
\@writefile{toc}{\contentsline {subsubsection}{\numberline {3.13.2.31}RAofAscNode}{34}{subsubsection.3.13.2.31}}
\newlabel{struct___sgp_t_l_e_32a0bdaab6be58e1e601ee6c236c681e}{{3.13.2.31}{34}{RAofAscNode\relax }{subsubsection.3.13.2.31}{}}
\@writefile{toc}{\contentsline {subsubsection}{\numberline {3.13.2.32}RevNumAtEpoch}{34}{subsubsection.3.13.2.32}}
\newlabel{struct___sgp_t_l_e_f19e71600e08a125e2e15bb43663cb63}{{3.13.2.32}{34}{RevNumAtEpoch\relax }{subsubsection.3.13.2.32}{}}
\@writefile{toc}{\contentsline {subsubsection}{\numberline {3.13.2.33}UT}{34}{subsubsection.3.13.2.33}}
\newlabel{struct___sgp_t_l_e_729fdcc4d138ef63b0baba5e9af8da26}{{3.13.2.33}{34}{UT\relax }{subsubsection.3.13.2.33}{}}
\@writefile{toc}{\contentsline {subsubsection}{\numberline {3.13.2.34}Year}{35}{subsubsection.3.13.2.34}}
\newlabel{struct___sgp_t_l_e_42e645110404fbf4f10235789577fa32}{{3.13.2.34}{35}{Year\relax }{subsubsection.3.13.2.34}{}}
\@writefile{toc}{\contentsline {subsubsection}{\numberline {3.13.2.35}YYYYDDDdFRAC}{35}{subsubsection.3.13.2.35}}
\newlabel{struct___sgp_t_l_e_f6a8f0b6159c1b5df5c8f6334b4002db}{{3.13.2.35}{35}{YYYYDDDdFRAC\relax }{subsubsection.3.13.2.35}{}}
\@setckpt{struct___sgp_t_l_e}{
\setcounter{page}{36}
\setcounter{equation}{0}
\setcounter{enumi}{0}
\setcounter{enumii}{0}
\setcounter{enumiii}{0}
\setcounter{enumiv}{0}
\setcounter{footnote}{0}
\setcounter{mpfootnote}{0}
\setcounter{part}{0}
\setcounter{chapter}{3}
\setcounter{section}{13}
\setcounter{subsection}{2}
\setcounter{subsubsection}{35}
\setcounter{paragraph}{0}
\setcounter{subparagraph}{0}
\setcounter{figure}{0}
\setcounter{table}{0}
\setcounter{float@type}{8}
\setcounter{lstnumber}{1}
\setcounter{Item}{0}
\setcounter{Hfootnote}{0}
\setcounter{lstlisting}{0}
\setcounter{section@level}{3}
}
